      2.10          N: GNSS NAV DATA                        RINEX VERSION / TYPE
fic2rin                                 01/05/2020 00:20:07 PGM / RUN BY / DATE
                                                            END OF HEADER
17 20  1  4 11 59 44.0 1.927064731717e-04 6.593836587854e-12 0.000000000000e+00
    3.000000000000e+00-4.681250000000e+01 3.980165789881e-09 7.340055747813e-01
   -2.494081854820e-06 1.346862164792e-02 7.625669240952e-06 5.153630264282e+03
    5.615840000000e+05-1.825392246246e-07-1.579261676348e+00-9.313225746155e-08
    9.840080194723e-01 2.451250000000e+02-1.667938508197e+00-8.108194881719e-09
   -1.610781381224e-10 1.000000000000e+00 2.086000000000e+03 0.000000000000e+00
    2.400000000000e+00 0.000000000000e+00-1.117587089539e-08 3.000000000000e+00
    5.584500000000e+05 4.000000000000e+00
32 20  1  4 11 59 44.0 1.753224059939e-04 1.091393642128e-11 0.000000000000e+00
    4.000000000000e+01-1.393750000000e+01 4.717696510996e-09 1.604614770806e+00
   -7.133930921555e-07 3.396956599317e-03 9.039416909218e-06 5.153665941238e+03
    5.615840000000e+05-5.029141902924e-08 1.499092620139e+00 1.005828380585e-07
    9.563604535773e-01 2.044687500000e+02-2.551105926979e+00-8.095694361023e-09
   -2.639395655709e-10 1.000000000000e+00 2.086000000000e+03 0.000000000000e+00
    2.400000000000e+00 0.000000000000e+00 4.656612873077e-10 4.000000000000e+01
    5.585400000000e+05 4.000000000000e+00
 1 20  1  4 11 59 44.0-2.515949308872e-04-1.216449163621e-11 0.000000000000e+00
    1.300000000000e+01-1.021875000000e+01 4.137315192927e-09-1.359194421069e+00
   -5.234032869339e-07 9.252440999262e-03 8.560717105865e-06 5.153639295578e+03
    5.615840000000e+05 2.458691596985e-07-5.810760291547e-01-1.490116119385e-08
    9.785666210676e-01 2.215625000000e+02 7.586139093486e-01-7.817468486084e-09
    3.578720496645e-10 1.000000000000e+00 2.086000000000e+03 0.000000000000e+00
    2.400000000000e+00 0.000000000000e+00 5.587935447693e-09 1.300000000000e+01
    5.589300000000e+05 4.000000000000e+00
18 20  1  4 11 59 44.0 1.112190075219e-04 2.501110429876e-12 0.000000000000e+00
    2.600000000000e+01-6.531250000000e+00 4.598405827775e-09-1.662644658247e+00
   -8.009374141693e-08 1.563859835733e-02 8.530914783478e-06 5.153654455185e+03
    5.615840000000e+05 2.384185791016e-07-6.409688403650e-01 3.464519977570e-07
    9.570930800256e-01 2.114375000000e+02 1.449756452541e+00-8.023191340981e-09
    3.089414400796e-10 1.000000000000e+00 2.086000000000e+03 0.000000000000e+00
    2.400000000000e+00 6.300000000000e+01-5.587935447693e-09 2.600000000000e+01
    5.614800000000e+05 4.000000000000e+00
 1 20  1  4 13 59 44.0-2.516824752092e-04-1.216449163621e-11 0.000000000000e+00
    1.500000000000e+01-1.006250000000e+01 4.153387290966e-09-3.089043059157e-01
   -4.600733518600e-07 9.253344614990e-03 8.357688784599e-06 5.153641641617e+03
    5.687840000000e+05 6.519258022308e-08-5.811329439826e-01 1.564621925354e-07
    9.785680737453e-01 2.305000000000e+02 7.585223818790e-01-8.028548706994e-09
    3.157274370293e-10 1.000000000000e+00 2.086000000000e+03 0.000000000000e+00
    2.400000000000e+00 0.000000000000e+00 5.587935447693e-09 1.500000000000e+01
    5.616000000000e+05 4.000000000000e+00
17 20  1  4 13 59 44.0 1.927539706230e-04 6.593836587854e-12 0.000000000000e+00
    5.600000000000e+01-5.300000000000e+01 3.823373544569e-09 1.784189815627e+00
   -2.840533852577e-06 1.346914214082e-02 7.599592208862e-06 5.153631021500e+03
    5.687840000000e+05 9.126961231232e-08-1.579319739566e+00-3.427267074585e-07
    9.840085139386e-01 2.425937500000e+02-1.667920125168e+00-7.784967132272e-09
   -8.678932940965e-11 1.000000000000e+00 2.086000000000e+03 0.000000000000e+00
    2.400000000000e+00 0.000000000000e+00-1.117587089539e-08 5.600000000000e+01
    5.616000000000e+05 4.000000000000e+00
32 20  1  4 13 59 44.0 1.754006370902e-04 1.091393642128e-11 0.000000000000e+00
    4.100000000000e+01-1.893750000000e+01 4.645907806423e-09 2.654571937508e+00
   -1.024454832077e-06 3.396477550268e-03 8.748844265938e-06 5.153667655945e+03
    5.687840000000e+05-4.656612873077e-08 1.499034419406e+00-3.725290298462e-08
    9.563592466699e-01 2.088125000000e+02-2.550876629199e+00-7.979618097409e-09
   -2.117945363783e-10 1.000000000000e+00 2.086000000000e+03 0.000000000000e+00
    2.400000000000e+00 0.000000000000e+00 4.656612873077e-10 4.100000000000e+01
    5.616000000000e+05 4.000000000000e+00
18 20  1  4 13 59 44.0 1.112367026508e-04 2.501110429876e-12 0.000000000000e+00
    2.700000000000e+01-5.468750000000e+00 4.661265588993e-09-6.123938809604e-01
   -2.887099981308e-07 1.563877100125e-02 8.631497621536e-06 5.153656150818e+03
    5.687840000000e+05-1.396983861923e-07-6.410287512491e-01 1.750886440277e-07
    9.570938070959e-01 2.185625000000e+02 1.449698752126e+00-8.411064640318e-09
    3.632294156774e-10 1.000000000000e+00 2.086000000000e+03 0.000000000000e+00
    2.400000000000e+00 6.300000000000e+01-5.587935447693e-09 2.700000000000e+01
    5.616000000000e+05 4.000000000000e+00
 2 20  1  4 14  0  0.0-3.795046359301e-04-7.275957614183e-12 0.000000000000e+00
    8.900000000000e+01-1.434375000000e+01 4.669480216880e-09-1.646773966174e-02
   -8.642673492432e-07 1.965592999477e-02 8.687376976013e-06 5.153607387543e+03
    5.688000000000e+05-2.905726432800e-07-6.544418375008e-01 7.636845111847e-08
    9.575811285148e-01 2.154062500000e+02-1.680841564152e+00-8.438208628117e-09
    2.971552348511e-10 1.000000000000e+00 2.086000000000e+03 0.000000000000e+00
    2.400000000000e+00 0.000000000000e+00-1.769512891769e-08 8.900000000000e+01
    5.616000000000e+05 4.000000000000e+00
 5 20  1  4 14  0  0.0-5.625654011965e-06-5.684341886081e-13 0.000000000000e+00
    8.200000000000e+01-1.706250000000e+01 5.070925510116e-09 2.566152040887e+00
   -9.220093488693e-07 5.781801068224e-03 6.161630153656e-06 5.153570587158e+03
    5.688000000000e+05-4.097819328308e-08 4.299239641045e-01-8.195638656616e-08
    9.516346430141e-01 2.567187500000e+02 8.025794237973e-01-8.203913154484e-09
    1.721500278825e-10 1.000000000000e+00 2.086000000000e+03 0.000000000000e+00
    2.400000000000e+00 0.000000000000e+00-1.117587089539e-08 8.200000000000e+01
    5.616000000000e+05 4.000000000000e+00
 3 20  1  4 14  0  0.0-6.568152457476e-05-7.389644451905e-12 0.000000000000e+00
    8.400000000000e+01-2.268750000000e+01 4.791628161975e-09-1.469347103908e+00
   -1.151114702225e-06 2.602641354315e-03 6.448477506638e-06 5.153636558533e+03
    5.688000000000e+05 2.980232238770e-08 4.598263475788e-01-7.450580596924e-09
    9.647327264304e-01 2.589375000000e+02 7.704221744674e-01-8.151053809823e-09
    1.660783464012e-10 1.000000000000e+00 2.086000000000e+03 0.000000000000e+00
    2.400000000000e+00 0.000000000000e+00 2.328306436539e-09 8.400000000000e+01
    5.616000000000e+05 4.000000000000e+00
28 20  1  4 14  0  0.0 7.471218705177e-04-2.046363078989e-12 0.000000000000e+00
    1.500000000000e+01 3.096875000000e+01 4.080527113190e-09 2.595848281649e+00
    1.592561602592e-06 1.891380350571e-02 4.252418875694e-06 5.153708246231e+03
    5.688000000000e+05 1.844018697739e-07-2.590632238460e+00 9.313225746155e-09
    9.796302371201e-01 3.034062500000e+02-1.423368914080e+00-7.720678740117e-09
   -1.642925577302e-10 1.000000000000e+00 2.086000000000e+03 0.000000000000e+00
    2.400000000000e+00 0.000000000000e+00-1.117587089539e-08 1.500000000000e+01
    5.616000000000e+05 4.000000000000e+00
16 20  1  4 14  0  0.0-1.100632362068e-04-3.979039320257e-12 0.000000000000e+00
    4.400000000000e+01 2.390625000000e+01 4.105528154584e-09 2.809142610968e+00
    1.145526766777e-06 1.119843998458e-02 4.999339580536e-06 5.153693647385e+03
    5.688000000000e+05-4.470348358154e-08-2.594453010365e+00-1.415610313416e-07
    9.806388021023e-01 2.950312500000e+02 5.860442232999e-01-7.880328247302e-09
   -7.428880871279e-11 1.000000000000e+00 2.086000000000e+03 0.000000000000e+00
    2.400000000000e+00 0.000000000000e+00-1.024454832077e-08 4.400000000000e+01
    5.616000000000e+05 4.000000000000e+00
10 20  1  4 14  0  0.0-1.973221078515e-04-1.375610736432e-11 0.000000000000e+00
    4.000000000000e+01-2.471875000000e+01 4.685552314918e-09-2.329150701310e+00
   -1.376494765282e-06 5.264792009257e-03 6.448477506638e-06 5.153662750244e+03
    5.688000000000e+05 5.774199962616e-08 4.567100116909e-01-1.266598701477e-07
    9.647124664779e-01 2.586250000000e+02-2.710985135161e+00-8.099265938365e-09
    1.803646557690e-10 1.000000000000e+00 2.086000000000e+03 0.000000000000e+00
    2.400000000000e+00 0.000000000000e+00 1.862645149231e-09 4.000000000000e+01
    5.616000000000e+05 4.000000000000e+00
 7 20  1  4 14  0  0.0-1.847716048360e-04-8.299139153678e-12 0.000000000000e+00
    8.800000000000e+01 6.815625000000e+01 4.637336020802e-09-1.016605977262e+00
    3.501772880554e-06 1.323484827299e-02 8.827075362206e-06 5.153709325790e+03
    5.688000000000e+05 3.334134817123e-07 2.566355768322e+00 1.676380634308e-07
    9.540382203442e-01 2.049062500000e+02-2.420745289621e+00-8.136053184987e-09
   -6.464554988949e-11 1.000000000000e+00 2.086000000000e+03 0.000000000000e+00
    3.400000000000e+00 0.000000000000e+00-1.117587089539e-08 8.800000000000e+01
    5.616000000000e+05 4.000000000000e+00
 9 20  1  4 14  0  0.0-1.246687024832e-04-9.094947017729e-12 0.000000000000e+00
    7.700000000000e+01-1.775000000000e+01 4.788056584633e-09 2.379375455590e+00
   -9.313225746155e-07 1.723810797557e-03 9.069219231606e-06 5.153534551620e+03
    5.688000000000e+05 2.421438694000e-08 1.491292054209e+00-8.940696716309e-08
    9.521842072085e-01 1.955000000000e+02 1.702438179029e+00-8.115695194138e-09
   -3.067984936744e-10 1.000000000000e+00 2.086000000000e+03 0.000000000000e+00
    3.400000000000e+00 0.000000000000e+00 1.396983861923e-09 7.700000000000e+01
    5.616000000000e+05 4.000000000000e+00
